SPACEXODC_L_00012073-01
1 13240U 26240FT  26075.70069444  .00000000  00000+0  00000-0 0  9997
2 13240  30.0000  76.9139 0000000   0.0000   6.8368 11.52666968    12
SPACEXODC_L_00012073-02
1 13241U 22976LR  26075.70069444  .00000000  00000+0  00000-0 0  9990
2 13241  30.0000  76.9139 0000000   0.0000  14.8368 11.52666968    12
SPACEXODC_L_00012073-03
1 13242U 26773MT  26075.70069444  .00000000  00000+0  00000-0 0  9990
2 13242  30.0000  76.9139 0000000   0.0000  22.8368 11.52666968    12
SPACEXODC_L_00012073-04
1 13243U 26586PO  26075.70069444  .00000000  00000+0  00000-0 0  9993
2 13243  30.0000  76.9139 0000000   0.0000  30.8368 11.52666968    12
SPACEXODC_L_00012073-05
1 13244U 22703UO  26075.70069444  .00000000  00000+0  00000-0 0  9991
2 13244  30.0000  76.9139 0000000   0.0000  38.8368 11.52666968    11
SPACEXODC_L_00012073-06
1 13245U 24108UZ  26075.70069444  .00000000  00000+0  00000-0 0  9993
2 13245  30.0000  76.9139 0000000   0.0000  46.8368 11.52666968    11
SPACEXODC_L_00012073-07
1 13246U 22862LK  26075.70069444  .00000000  00000+0  00000-0 0  9999
2 13246  30.0000  76.9139 0000000   0.0000  54.8368 11.52666968    11
SPACEXODC_L_00012073-08
1 13247U 25658AG  26075.70069444  .00000000  00000+0  00000-0 0  9996
2 13247  30.0000  76.9139 0000000   0.0000  62.8368 11.52666968    11
SPACEXODC_L_00012073-09
1 13248U 23343YE  26075.70069444  .00000000  00000+0  00000-0 0  9996
2 13248  30.0000  76.9139 0000000   0.0000  70.8368 11.52666968    11
SPACEXODC_L_00012073-10
1 13249U 23182OD  26075.70069444  .00000000  00000+0  00000-0 0  9998
2 13249  30.0000  76.9139 0000000   0.0000  78.8368 11.52666968    10
SPACEXODC_L_00012073-11
1 13250U 26167VO  26075.70069444  .00000000  00000+0  00000-0 0  9996
2 13250  30.0000  76.9139 0000000   0.0000  86.8368 11.52666968    11
SPACEXODC_L_00012073-12
1 13251U 25092JY  26075.70069444  .00000000  00000+0  00000-0 0  9993
2 13251  30.0000  76.9139 0000000   0.0000  94.8368 11.52666968    11
SPACEXODC_L_00012073-13
1 13252U 26625SN  26075.70069444  .00000000  00000+0  00000-0 0  9997
2 13252  30.0000  76.9139 0000000   0.0000 102.8368 11.52666968    12
SPACEXODC_L_00012073-14
1 13253U 23002CZ  26075.70069444  .00000000  00000+0  00000-0 0  9994
2 13253  30.0000  76.9139 0000000   0.0000 110.8368 11.52666968    12
SPACEXODC_L_00012073-15
1 13254U 24966OX  26075.70069444  .00000000  00000+0  00000-0 0  9995
2 13254  30.0000  76.9139 0000000   0.0000 118.8368 11.52666968    11
SPACEXODC_L_00012073-16
1 13255U 24054EL  26075.70069444  .00000000  00000+0  00000-0 0  9994
2 13255  30.0000  76.9139 0000000   0.0000 126.8368 11.52666968    11
SPACEXODC_L_00012073-17
1 13256U 22348QS  26075.70069444  .00000000  00000+0  00000-0 0  9999
2 13256  30.0000  76.9139 0000000   0.0000 134.8368 11.52666968    11
SPACEXODC_L_00012073-18
1 13257U 26332FL  26075.70069444  .00000000  00000+0  00000-0 0  9997
2 13257  30.0000  76.9139 0000000   0.0000 142.8368 11.52666968    11
SPACEXODC_L_00012073-19
1 13258U 24894YX  26075.70069444  .00000000  00000+0  00000-0 0  9999
2 13258  30.0000  76.9139 0000000   0.0000 150.8368 11.52666968    11
SPACEXODC_L_00012073-20
1 13259U 24376ED  26075.70069444  .00000000  00000+0  00000-0 0  9995
2 13259  30.0000  76.9139 0000000   0.0000 158.8368 11.52666968    10
SPACEXODC_L_00012073-21
1 13260U 24853RN  26075.70069444  .00000000  00000+0  00000-0 0  9997
2 13260  30.0000  76.9139 0000000   0.0000 166.8368 11.52666968    11
SPACEXODC_L_00012073-22
1 13261U 23786VY  26075.70069444  .00000000  00000+0  00000-0 0  9992
2 13261  30.0000  76.9139 0000000   0.0000 174.8368 11.52666968    11
SPACEXODC_L_00012073-23
1 13262U 24071HW  26075.70069444  .00000000  00000+0  00000-0 0  9991
2 13262  30.0000  76.9139 0000000   0.0000 182.8368 11.52666968    11
SPACEXODC_L_00012073-24
1 13263U 25151ZI  26075.70069444  .00000000  00000+0  00000-0 0  9992
2 13263  30.0000  76.9139 0000000   0.0000 190.8368 11.52666968    11
SPACEXODC_L_00012073-25
1 13264U 25553YH  26075.70069444  .00000000  00000+0  00000-0 0  9999
2 13264  30.0000  76.9139 0000000   0.0000 198.8368 11.52666968    10
SPACEXODC_L_00012073-26
1 13265U 24998WH  26075.70069444  .00000000  00000+0  00000-0 0  9992
2 13265  30.0000  76.9139 0000000   0.0000 206.8368 11.52666968    11
SPACEXODC_L_00012073-27
1 13266U 22763PC  26075.70069444  .00000000  00000+0  00000-0 0  9991
2 13266  30.0000  76.9139 0000000   0.0000 214.8368 11.52666968    11
SPACEXODC_L_00012073-28
1 13267U 26917MG  26075.70069444  .00000000  00000+0  00000-0 0  9997
2 13267  30.0000  76.9139 0000000   0.0000 222.8368 11.52666968    11
SPACEXODC_L_00012073-29
1 13268U 26927HG  26075.70069444  .00000000  00000+0  00000-0 0  9999
2 13268  30.0000  76.9139 0000000   0.0000 230.8368 11.52666968    11
SPACEXODC_L_00012073-30
1 13269U 23214AV  26075.70069444  .00000000  00000+0  00000-0 0  9996
2 13269  30.0000  76.9139 0000000   0.0000 238.8368 11.52666968    10
SPACEXODC_L_00012073-31
1 13270U 24091VH  26075.70069444  .00000000  00000+0  00000-0 0  9992
2 13270  30.0000  76.9139 0000000   0.0000 246.8368 11.52666968    11
SPACEXODC_L_00012073-32
1 13271U 24531FV  26075.70069444  .00000000  00000+0  00000-0 0  9992
2 13271  30.0000  76.9139 0000000   0.0000 254.8368 11.52666968    11
SPACEXODC_L_00012073-33
1 13272U 23382BL  26075.70069444  .00000000  00000+0  00000-0 0  9996
2 13272  30.0000  76.9139 0000000   0.0000 262.8368 11.52666968    11
SPACEXODC_L_00012073-34
1 13273U 24144IS  26075.70069444  .00000000  00000+0  00000-0 0  9994
2 13273  30.0000  76.9139 0000000   0.0000 270.8368 11.52666968    11
SPACEXODC_L_00012073-35
1 13274U 23771RR  26075.70069444  .00000000  00000+0  00000-0 0  9990
2 13274  30.0000  76.9139 0000000   0.0000 278.8368 11.52666968    10
SPACEXODC_L_00012073-36
1 13275U 22910PK  26075.70069444  .00000000  00000+0  00000-0 0  9995
2 13275  30.0000  76.9139 0000000   0.0000 286.8368 11.52666968    10
SPACEXODC_L_00012073-37
1 13276U 25460T   26075.70069444  .00000000  00000+0  00000-0 0  9999
2 13276  30.0000  76.9139 0000000   0.0000 294.8368 11.52666968    10
SPACEXODC_L_00012073-38
1 13277U 24784KO  26075.70069444  .00000000  00000+0  00000-0 0  9998
2 13277  30.0000  76.9139 0000000   0.0000 302.8368 11.52666968    11
SPACEXODC_L_00012073-39
1 13278U 25248QF  26075.70069444  .00000000  00000+0  00000-0 0  9995
2 13278  30.0000  76.9139 0000000   0.0000 310.8368 11.52666968    11
SPACEXODC_L_00012073-40
1 13279U 25689QU  26075.70069444  .00000000  00000+0  00000-0 0  9995
2 13279  30.0000  76.9139 0000000   0.0000 318.8368 11.52666968    10
SPACEXODC_L_00012073-41
1 13280U 24555IP  26075.70069444  .00000000  00000+0  00000-0 0  9998
2 13280  30.0000  76.9139 0000000   0.0000 326.8368 11.52666968    11
SPACEXODC_L_00012073-42
1 13281U 24437QK  26075.70069444  .00000000  00000+0  00000-0 0  9998
2 13281  30.0000  76.9139 0000000   0.0000 334.8368 11.52666968    11
SPACEXODC_L_00012073-43
1 13282U 24025YA  26075.70069444  .00000000  00000+0  00000-0 0  9992
2 13282  30.0000  76.9139 0000000   0.0000 342.8368 11.52666968    11
SPACEXODC_L_00012073-44
1 13283U 22556OL  26075.70069444  .00000000  00000+0  00000-0 0  9990
2 13283  30.0000  76.9139 0000000   0.0000 350.8368 11.52666968    11
SPACEXODC_L_00012073-45
1 13284U 24742HM  26075.70069444  .00000000  00000+0  00000-0 0  9990
2 13284  30.0000  76.9139 0000000   0.0000 358.8368 11.52666968    10
SPACEXODC_L_00012074-01
1 13285U 24423GC  26075.70069444  .00000000  00000+0  00000-0 0  9997
2 13285  30.0000  77.9822 0000000   0.0000   6.9318 11.52666968    17
SPACEXODC_L_00012074-02
1 13286U 24602SI  26075.70069444  .00000000  00000+0  00000-0 0  9997
2 13286  30.0000  77.9822 0000000   0.0000  14.9318 11.52666968    17
SPACEXODC_L_00012074-03
1 13287U 25169ZN  26075.70069444  .00000000  00000+0  00000-0 0  9997
2 13287  30.0000  77.9822 0000000   0.0000  22.9318 11.52666968    17
SPACEXODC_L_00012074-04
1 13288U 23755RC  26075.70069444  .00000000  00000+0  00000-0 0  9997
2 13288  30.0000  77.9822 0000000   0.0000  30.9318 11.52666968    17
SPACEXODC_L_00012074-05
1 13289U 24809NQ  26075.70069444  .00000000  00000+0  00000-0 0  9999
2 13289  30.0000  77.9822 0000000   0.0000  38.9318 11.52666968    16
SPACEXODC_L_00012074-06
1 13290U 22841U   26075.70069444  .00000000  00000+0  00000-0 0  9995
2 13290  30.0000  77.9822 0000000   0.0000  46.9318 11.52666968    17
SPACEXODC_L_00012074-07
1 13291U 23893J   26075.70069444  .00000000  00000+0  00000-0 0  9994
2 13291  30.0000  77.9822 0000000   0.0000  54.9318 11.52666968    17
SPACEXODC_L_00012074-08
1 13292U 25899TI  26075.70069444  .00000000  00000+0  00000-0 0  9993
2 13292  30.0000  77.9822 0000000   0.0000  62.9318 11.52666968    17
SPACEXODC_L_00012074-09
1 13293U 25586IE  26075.70069444  .00000000  00000+0  00000-0 0  9997
2 13293  30.0000  77.9822 0000000   0.0000  70.9318 11.52666968    17
SPACEXODC_L_00012074-10
1 13294U 23386KG  26075.70069444  .00000000  00000+0  00000-0 0  9994
2 13294  30.0000  77.9822 0000000   0.0000  78.9318 11.52666968    16
SPACEXODC_L_00012074-11
1 13295U 22142U   26075.70069444  .00000000  00000+0  00000-0 0  9994
2 13295  30.0000  77.9822 0000000   0.0000  86.9318 11.52666968    16
SPACEXODC_L_00012074-12
1 13296U 26626AO  26075.70069444  .00000000  00000+0  00000-0 0  9996
2 13296  30.0000  77.9822 0000000   0.0000  94.9318 11.52666968    16
SPACEXODC_L_00012074-13
1 13297U 22260HZ  26075.70069444  .00000000  00000+0  00000-0 0  9997
2 13297  30.0000  77.9822 0000000   0.0000 102.9318 11.52666968    17
SPACEXODC_L_00012074-14
1 13298U 24040HE  26075.70069444  .00000000  00000+0  00000-0 0  9996
2 13298  30.0000  77.9822 0000000   0.0000 110.9318 11.52666968    17
SPACEXODC_L_00012074-15
1 13299U 23418XQ  26075.70069444  .00000000  00000+0  00000-0 0  9995
2 13299  30.0000  77.9822 0000000   0.0000 118.9318 11.52666968    16
